BEIDOU-2 G5 (C05)       
1 38091U 12008A   26116.50567990  .00000047  00000+0  00000+0 0  9998
2 38091   3.4471  69.9871 0012301 265.8643 119.4374  1.00272955 51852
BEIDOU-2 M3 (C11)       
1 38250U 12018A   26116.10380698 -.00000054  00000+0  00000+0 0  9999
2 38250  55.8032 306.6299 0019715 278.1190  81.6621  1.86229687 94971
BEIDOU-2 M4 (C12)       
1 38251U 12018B   26113.35122763 -.00000040  00000+0  00000+0 0  9996
2 38251  55.7057 305.9412 0011064 284.1649  75.7156  1.86229378 94910
SES-5 (EGNOS/PRN 136)   
1 38652U 12036A   26116.28108757  .00000021  00000+0  00000+0 0  9991
2 38652   0.0589 300.7059 0001921  91.4564 288.2905  1.00271440 43936
BEIDOU-2 M6 (C14)       
1 38775U 12050B   26115.20896256 -.00000027  00000+0  00000+0 0  9999
2 38775  56.5004  64.6451 0014489 348.5468  11.3943  1.86230847 92328
GSAT-10 (GAGAN/PRN 128) 
1 38779U 12051B   26116.51044656 -.00000176  00000+0  00000+0 0  9993
2 38779   0.0239 263.4666 0006979 178.3166  39.4567  1.00270037 49586
GPS BIIF-3  (PRN 24)    
1 38833U 12053A   26113.97246792  .00000040  00000+0  00000+0 0  9997
2 38833  53.5743 145.8203 0177937  65.1328 296.7656  2.00566553 98354
GSAT0103 (GALILEO-FM3)  
1 38857U 12055A   26115.09622636  .00000047  00000+0  00000+0 0  9992
2 38857  55.7743 103.0007 0005916 295.5097  64.4243  1.70473359 84108
BEIDOU-2 G6 (C02)       
1 38953U 12059A   26116.51061991 -.00000184  00000+0  00000+0 0  9995
2 38953   4.2930  74.0562 0010559 313.9492  94.2769  1.00274630 49398
LUCH 5B (SDCM/PRN 125)  
1 38977U 12061A   26115.63512328 -.00000146  00000+0  00000+0 0  9999
2 38977  10.3736  50.3947 0001856 213.6172 162.0087  1.00271530 49080
COSMOS 2485 (747)       
1 39155U 13019A   26113.00664174  .00000025  00000+0  00000+0 0  9993
2 39155  65.3905  75.4553 0024583 237.7272 122.0157  2.13103112101109
GPS BIIF-4  (PRN 27)    
1 39166U 13023A   26113.33948645 -.00000014  00000+0  00000+0 0  9993
2 39166  54.5486 271.2064 0141929  50.6414 310.5808  2.00563719 94783
IRNSS-1A                
1 39199U 13034A   26116.43356508  .00000076  00000+0  00000+0 0  9993
2 39199  35.6110  64.6095 0017028 187.3716 173.4894  1.00272380 46852
GPS BIIF-5  (PRN 30)    
1 39533U 14008A   26115.33446883  .00000045  00000+0  00000+0 0  9997
2 39533  53.6444 151.4757 0083772 230.1062 129.2171  2.00556368 88624
ASTRA 5B (EGNOS/PRN 123)
1 39617U 14011B   26116.49857318  .00000124  00000+0  00000+0 0  9999
2 39617   0.0681 307.1623 0002691  65.3356  44.9846  1.00269526 44140
COSMOS 2492 (754)       
1 39620U 14012A   26111.55782382 -.00000024  00000+0  00000+0 0  9994
2 39620  65.3303 315.8614 0011743 330.3825  29.5784  2.13103169 94037
IRNSS-1B                
1 39635U 14017A   26116.43347843  .00000074  00000+0  00000+0 0  9990
2 39635  29.0152 241.2917 0023430 182.1973   1.9131  1.00272780 44275
